,address,city,lat,lng,name,place_id,state
0,"435 8th Street Northwest, Washington, DC 20004, United States",D.C.,38.895879,-77.0228,CVS Pharmacy - Photo,ChIJ7axzPZC3t4kRlEullZkQtzg,DC
1,"400 Massachusetts Avenue Northwest, Washington, DC 20001, United States",D.C.,38.89993,-77.016655,CVS Pharmacy - Photo,ChIJ4RvrDYy3t4kRN2CIz25Kgb0,DC
2,"1199 Vermont Avenue NW, Washington, DC 20005, United States",D.C.,38.90445,-77.032317,CVS Pharmacy - Photo,ChIJe6mPR5W3t4kRTHtvzhs-4kQ,DC
3,"1716 G Street Northwest, Washington, DC 20006, United States",D.C.,38.898091,-77.040496,CVS Pharmacy,ChIJQdjRbLu3t4kRQzVAlVwRKaA,DC
4,"1901 Pennsylvania Avenue NW, Washington, DC 20006, United States",D.C.,38.900712,-77.043758,CVS Pharmacy - Photo,ChIJI6Naa7q3t4kR2jRln2J74i0,DC
5,"6 Dupont Circle NW, Washington, DC 20036, United States",D.C.,38.909436,-77.044492,CVS Pharmacy - Photo,ChIJn9FC0ce3t4kRSfK6zZhRJuY,DC
6,"500 C Street South, Washington, DC 20024, United States",D.C.,38.885836,-77.018825,CVS Pharmacy,ChIJ8cTCTYK3t4kR9PeoG2Dli8c,DC
7,"717 14th Street NW, Washington, DC 20005, United States",D.C.,38.898855,-77.031562,CVS Pharmacy - Photo,ChIJH786RJa3t4kR1TsBVS9osuA,DC
8,"2819 M Street NW, Washington, DC 20007, United States",D.C.,38.905517,-77.057688,CVS Photo,ChIJLZQrI0u2t4kRyIBotfh6678,DC
9,"845 Bladensburg Road, Washington, DC 20002, United States",D.C.,38.901317,-76.981941,CVS Pharmacy - Photo,ChIJIRcrH2q4t4kR6wYoPupx6pQ,DC
10,"1500 K Street NW, Washington, DC 20005, United States",D.C.,38.902122,-77.034985,CVS Pharmacy,ChIJz9y_FL63t4kRUGKvvE6U77U,DC
11,"2226 Wisconsin Avenue NW, Washington, DC 20007, United States",Washington,38.919817,-77.071524,CVS Pharmacy - Photo,ChIJYdPRLzu2t4kR7u3o1RjIAz8,DC
12,"1117 10Th Street, Washington, DC 20001, United States",D.C.,38.904722,-77.025616,CVS Pharmacy,ChIJ_fIKduPayYkRu0kWn-qplSA,DC
13,"1350 Connecticut Avenue NW, Washington, DC 20036, United States",D.C.,38.908311,-77.043037,CVS Photo,ChIJn9FC0ce3t4kRdgEEgHFN7kE,DC
14,"1403 Wisconsin Avenue NW, Washington, DC 20007, United States",D.C.,38.908678,-77.06368,CVS Pharmacy - Photo,ChIJQVMQ6Em2t4kRQ7fpXeo61Oc,DC
15,"1637 P Street NW, Washington, DC 20036, United States",D.C.,38.909897,-77.038232,CVS Pharmacy - Photo,ChIJHxsrJcG3t4kR4QDW14dE40U,DC
16,"1418 P Street Northwest, Washington, DC 20005, United States",D.C.,38.90942,-77.0328,CVS Pharmacy - Photo,ChIJ7e1Acuq3t4kRLKPCbeCbzb0,DC
17,"661 Pennsylvania Avenue SE, Washington, DC 20003, United States",D.C.,38.884477,-76.996482,CVS Pharmacy,ChIJL_0ATjK4t4kRx6T6Y3TlTUM,DC
18,"3031 Fourteenth Street Northwest, Washington, DC 20009, United States",D.C.,38.928417,-77.032225,CVS Pharmacy - Photo,ChIJi4fZmx_It4kRoLKm4sQ7hzc,DC
19,"1100 Wilson Boulevard, Rosslyn, VA 22209, United States",,38.89434,-77.070582,CVS Pharmacy - Photo,ChIJ7Y2QKFq2t4kR5hlKXQ9dauU,VA
20,"2601 Columbia Turnpike, Arlington, VA 22204, United States",Arlington,38.863234,-77.085281,CVS Pharmacy - Photo,ChIJG2Cjf7m2t4kRg8gwL1DVAsY,VA
21,"7809 Wisconsin Avenue, Bethesda, MD 20814, United States",Bethesda,38.98905,-77.09474,CVS Pharmacy - Photo,ChIJgXXVPWTJt4kRnComqsA887U,MD
22,"4555 Wisconsin Avenue, Washington, DC 20016, United States",D.C.,38.94942,-77.079864,CVS Pharmacy - Photo,ChIJHxp7eerJt4kR3T4NZ0IPCZ4,DC
23,"1275 Pennsylvania Avenue Northwest, Washington, DC 20004, United States",D.C.,38.895807,-77.029194,CVS Pharmacy - Photo,ChIJF5CrYZe3t4kRfR8maFJA4kU,DC
24,"2550 Virginia Avenue NW, Washington, DC 20037, United States",D.C.,38.899134,-77.054508,CVS Pharmacy - Photo,ChIJ0SiW7LK3t4kRSGw2kWjsJSM,DC
25,"2400 Jefferson Davis Highway, Arlington, VA 22202, United States",Arlington,38.852134,-77.053236,CVS Pharmacy - Photo,ChIJyxhGeim3t4kRexIZEJXuBU4,VA
26,"2121 15th Street North, Arlington, VA 22201, United States",Arlington,38.891021,-77.085064,CVS Pharmacy - Photo,ChIJXbk6Aoq2t4kRo99a4731pDQ,VA
27,"3601 12th Street NE, Washington, DC 20017, United States",D.C.,38.933797,-76.9908,CVS Pharmacy - Photo,ChIJix4tve3Ht4kRGas1HJclHds,DC
28,"1200 First Street Northeast, Washington, DC 20002, United States",D.C.,38.906031,-77.006364,CVS Pharmacy - Photo,ChIJvZIW3h64t4kRFPxTFrHnJNE,DC
29,"1025 Connecticut Avenue, Washington, DC 20036, United States",D.C.,38.903126,-77.039206,CVS Pharmacy - Photo,ChIJUVhSNLm3t4kRBzIUKmiVS0g,DC
30,"1900 7th Street NW, Washington, DC 20001, United States",D.C.,38.915817,-77.022287,CVS Pharmacy - Photo,ChIJn5_8S-W3t4kRxL_lJ2lXwrA,DC
31,"2240 M Street Northwest, Washington, DC 20037, United States",D.C.,38.905077,-77.049544,CVS Pharmacy - Photo,ChIJwXwzira3t4kR8C_ZfDc51dc,DC
32,"500 12th Street SE, Washington, DC 20003, United States",D.C.,38.882532,-76.989878,CVS Pharmacy - Photo,ChIJh8tfAzW4t4kRVuiUK3LDq3w,DC
33,"3240 Pennsylvania Avenue SE, Washington, DC 20020, United States",D.C.,38.869647,-76.959271,CVS Pharmacy,ChIJ1fifZga5t4kRCOpvWz8JADg,DC
34,"1000 U Street Northwest, Washington, DC 20001, United States",D.C.,38.916752,-77.026312,CVS Pharmacy - Photo,ChIJd2MiwOW3t4kR4bQeFX6GIdU,DC
35,"2000 Pennsylvania Avenue Northwest, Washington, DC 20006, United States",D.C.,38.90017,-77.046228,CVS Pharmacy - Photo,ChIJI6Naa7q3t4kRjsmhaqVmyb4,DC
36,"1555 Wilson Boulevard, Arlington, VA 22209, United States",Arlington,38.894841,-77.076088,CVS Pharmacy - Photo,ChIJoeimj162t4kRqiJypVHKjxE,VA
37,"415 Monroe Avenue, Alexandria, VA 22301, United States",Alexandria,38.820495,-77.054747,CVS Pharmacy - Photo,ChIJAdGOI-Kwt4kR4XHq-AqTMug,VA
38,"2129 14th Street Northwest, Washington, DC 20009, United States",D.C.,38.918965,-77.031563,CVS Pharmacy - Photo,ChIJIXivCue3t4kRC73JVnS1ZVw,DC
39,"2000 M Street Northwest, Washington, DC 20036, United States",Washington,38.905461,-77.045209,CVS Pharmacy - Photo,ChIJW5S_iLe3t4kRR7MGzJYAyB4,DC
40,"1755 Columbia Road NW, Washington, DC 20009, United States",D.C.,38.924053,-77.041498,CVS Pharmacy - Photo,ChIJaxbVE9m3t4kRAHqfhuEJOa4,DC
41,"4238 Wilson Boulevard, Arlington, VA 22203, United States",Arlington,38.879606,-77.110105,CVS Pharmacy - Photo,ChIJJ2kMgiO0t4kRHy225r3Ur9U,VA
42,"433 L'Enfant Plaza Center SW, Washington, DC 20024, United States",D.C.,38.884424,-77.026547,CVS Pharmacy - Photo,ChIJ-_OyMHa3t4kRSphLlklPYdA,DC
43,"110 Carroll Avenue Northwest, Washington, DC 20012, United States",D.C.,38.974542,-77.014684,CVS Pharmacy - Photo,ChIJ3WdeOYPIt4kRdNLNf-fFvKs,DC
44,"3133 Lee Highway, Arlington, VA 22201, United States",Arlington,38.896441,-77.096948,CVS Pharmacy - Photo,ChIJOYIunfh8tokRGj2ixob0MPI,VA
45,"1100 4th Street SW, Washington, DC 20024, United States",D.C.,38.877665,-77.017212,CVS Pharmacy - Photo,ChIJ1ahp5NO5t4kRd2QNlL27X7Q,DC
46,"1101 Connecticut Avenue Northwest, Washington, DC 20036, United States",D.C.,38.904056,-77.039661,CVS Photo,ChIJUVhSNLm3t4kRKlKK9PEIPyA,DC
47,"2000 L Street Northwest, Washington, DC 20036, United States",D.C.,38.903526,-77.045637,CVS Pharmacy - Photo,ChIJ22qUaLe3t4kRkolG_tGaLsA,DC
48,"1290 East-West Highway, Silver Spring, MD 20910, United States",Silver Spring,38.9923,-77.032185,CVS Pharmacy - Photo,ChIJVbn4Rr_It4kRNxBO8QctGkA,MD
49,"5550 Connecticut Avenue NW, Washington, DC 20015, United States",D.C.,38.964721,-77.075917,CVS Pharmacy - Photo,ChIJQwgJqKPJt4kRS4gGbuTV_J8,DC
50,"503 King Street, Alexandria, VA 22314, United States",Alexandria,38.805042,-77.044878,CVS Pharmacy - Photo,ChIJbwsf3vewt4kRdF8da8FPw9M,VA
51,"3141 Wilson Boulevard, Arlington, VA 22201, United States",Arlington,38.886999,-77.096007,CVS Pharmacy - Photo,ChIJ2We7BIS2t4kRgkT9Q2ffSg0,VA
52,"2125 E Street NW, Washington, DC 20037, United States",D.C.,38.896456,-77.047766,CVS Pharmacy - Photo,ChIJ7zdTNa63t4kRMq0vLxy5ENk,DC
53,"4709 Lee Highway, Arlington, VA 22207, United States",Arlington,38.898466,-77.122324,CVS Pharmacy - Photo,ChIJEwnKqMu1t4kR1iAeyD-FNvk,VA
54,"3327 Connecticut Avenue NW, Washington, DC 20008, United States",D.C.,38.93426,-77.05736,CVS Pharmacy - Photo,ChIJQ_t2WNPJt4kRiqjejLQmRMg,DC
55,"1990 K Street Northwest, Washington, DC 20006, United States",D.C.,38.902271,-77.044634,CVS Pharmacy,ChIJhW_GA7q3t4kRER-7hba46rA,DC
56,"3130 Duke Street, Alexandria, VA 22314, United States",Alexandria,38.8073,-77.08429,CVS Pharmacy - Photo,ChIJbR2RDZ6xt4kRplTQmAysBmc,VA
57,"6700 Wisconsin Avenue, Bethesda, MD 20815, United States",Bethesda,38.977577,-77.09127,CVS Pharmacy - Photo,ChIJP1cqfXfJt4kRkQA8th1Hneg,MD
58,"3642 Georgia Avenue, Washington, DC 20010, United States",D.C.,38.935488,-77.024511,CVS Pharmacy - Photo,ChIJmdqChhrIt4kRD6FaVgxrsII,DC
59,"4851 Massachusetts Avenue NW, Washington, DC 20016, United States",D.C.,38.946038,-77.0959,CVS Pharmacy - Photo,ChIJjdKi2vDJt4kRPHaHC1JnTfE,DC
60,"433 South Washington Street, Alexandria, VA 22314, United States",Alexandria,38.800731,-77.048286,CVS Pharmacy - Photo,ChIJX0lp3Fawt4kRecJiWbO_csM,VA
61,"4309 Connecticut Avenue NW, Washington, DC 20008, United States",D.C.,38.944696,-77.062649,CVS Pharmacy - Photo,ChIJS57Cyc7Jt4kRpUiJJ83Az74,DC
62,"6514 Georgia Avenue, Washington, DC 20012, United States",D.C.,38.96947,-77.027711,CVS Pharmacy - Photo,ChIJwbBo4ZHIt4kRsp-jUP15GcA,DC
63,"2601 Connecticut Ave, Washington, DC 20008, United States",D.C.,38.923812,-77.051195,CVS Pharmacy - Photo,ChIJu-yDctS3t4kRWpZShoBvRhA,DC
64,"10233 Old Georgetown Road, Bethesda, MD 20814, United States",Bethesda,39.024018,-77.12358,CVS Pharmacy - Photo,ChIJX4jAZAvMt4kRk1Hpu7A6d5E,MD
65,"128 130 Kennedy Street Nw, Washington, DC 20011, United States",D.C.,38.95637,-77.013159,CVS Pharmacy,ChIJDdwnS3jIt4kREuuBosvXO6o,DC
66,"5013 Connecticut Avenue, Washington, DC 20008, United States",D.C.,38.955387,-77.069506,CVS Pharmacy,ChIJcTZnk7nJt4kRge1VPIiim6U,DC
67,"5227 Georgia Avenue NW, Washington, DC 20011, United States",D.C.,38.953807,-77.027296,CVS Pharmacy - Photo,ChIJ7b271G7It4kRV2EtPXv68bY,DC
68,"8124 Arlington Boulevard, Falls Church, VA 22042, United States",Falls Church,38.866941,-77.226409,CVS Pharmacy - Photo,ChIJU05Pfp1MtokRAHdhJr4VmW8,VA
69,"9520 Georgia Avenue, Silver Spring, MD 20910, United States",Silver Spring,39.010808,-77.04212,CVS Pharmacy - Photo,ChIJ0WYVGDPPt4kRrBcLAyAgj7w,MD
70,"7939 New Hampshire Avenue Northeast, Langley Park, MD 20783, United States",Langley Park,38.989477,-76.985864,CVS Pharmacy - Photo,ChIJXRVvMxPGt4kRDM9DY7klJ6w,MD
71,"256 North Glebe Road, Arlington, VA 22203, United States",Arlington,38.873459,-77.105225,CVS Pharmacy - Photo,ChIJ7cTWMSC0t4kRC1KhMtdQdA0,VA
72,"3714 Branch Avenue, Hillcrest Heights, MD 20748, United States",Hillcrest Heights,38.841597,-76.947221,CVS Pharmacy - Photo,ChIJ6x7nImS5t4kRQS7se-Q-_CQ,MD
73,"5101 Duke Street, Alexandria, VA 22304, United States",Alexandria,38.812679,-77.11913,CVS Pharmacy - Photo,ChIJsXziUjOyt4kRC2pXTwN6gt4,VA
74,"1580 Rockville Pike, Rockville, MD 20852, United States",Rockville,39.064328,-77.125236,CVS Pharmacy - Photo,ChIJyWngCcrNt4kR0nowSW6-FRc,MD
75,"6516 Landover Road, Landover, MD 20785, United States",,38.93252,-76.900683,CVS Pharmacy - Photo,ChIJ4bo8T8fAt4kRFGqCdRjJF5w,MD
76,"5017 Columbia Pike, Arlington, VA 22204, United States",Arlington,38.85596,-77.113439,CVS Pharmacy - Photo,ChIJZT-szQe0t4kRy4MDeGboxww,VA
77,"320 40th Street Northeast, Washington, DC 20019, United States",D.C.,38.893501,-76.947735,CVS Pharmacy - Photo,ChIJX5QueOy4t4kRyoq0O3mwxvU,DC
78,"1452 Chain Bridge Road, McLean, VA 22101, United States",McLean,38.932972,-77.180191,CVS Pharmacy - Photo,ChIJ1w9tzUS1t4kRNrJwakcCL0Y,VA
79,"7607 Greenbelt Road, Greenbelt, MD 20770, United States",Greenbelt,38.993521,-76.87564,CVS Pharmacy - Photo,ChIJHdnrUdTDt4kRztrRMpETM-s,MD
80,"2646 Naylor Road SE, Washington, DC 20020, United States",D.C.,38.861933,-76.968413,CVS Pharmacy - Photo,ChIJ03HAOKG5t4kRLw2_d1wBD84,DC
81,"4901 Indian Head Highway, Oxon Hill, MD 20745, United States",Oxon Hill,38.820197,-77.001535,CVS Pharmacy,ChIJL-40vHK6t4kR0L9WygjAPfY,MD
82,"3611 Bladensburg Road, Colmar Manor, MD 20722, United States",Colmar Manor,38.934094,-76.951285,CVS Pharmacy - Photo,ChIJdy3yjG3Ht4kR3qQhE-t2ios,MD
83,"6917 Arlington Road, Bethesda, MD 20814, United States",Bethesda,38.978459,-77.098438,CVS Pharmacy - Photo,ChIJNUyB737Jt4kRpPweT3DfqbU,MD
84,"5335 Wisconsin Avenue Northwest, Washington, DC 20015, United States",D.C.,38.96052,-77.084754,CVS Pharmacy,ChIJZYOxKpfJt4kRzn048ne88xI,DC
85,"10141 Colesville Road, Silver Spring, MD 20901, United States",Silver Spring,39.021107,-77.011716,CVS Pharmacy - Photo,ChIJ38d_xljPt4kRqs1Jf3324rw,MD
86,"6221 Oxon Hill Road, Oxon Hill, MD 20745, United States",Oxon Hill,38.805153,-76.985651,CVS Pharmacy - Photo,ChIJ37srcVy6t4kR38OuMjXBpJk,MD
87,"3715 University Boulevard, Kensington, MD 20895, United States",Kensington,39.033656,-77.073559,CVS Pharmacy - Photo,ChIJbe6ZA8LOt4kR83wDDWkNTj0,MD
88,"4859 Macarthur Boulevard, Washington, DC 20007, United States",D.C.,38.916754,-77.095419,CVS Pharmacy - Photo,ChIJpUS6bAy2t4kRQZKOPBA7Hio,DC
89,"3605 East-West Highway, West Hyattsville, MD 20782, United States",,38.965992,-76.952716,CVS Pharmacy - Photo,ChIJDYjz3vrGt4kRQ4N2ov9G1nk,MD
90,"1150 West Broad Street, Falls Church, VA 22046, United States",Falls Church,38.894184,-77.187715,CVS Pharmacy - Photo,ChIJVST45tG0t4kRaSZh8-zmWaA,VA
91,"360 Hungerford Drive, Rockville, MD 20850, United States",Rockville,39.087169,-77.150345,CVS Pharmacy - Photo,ChIJbQIilXXNt4kRf-k-H9LHGuE,MD
92,"5707 Riverdale Road, Riverdale, MD 20737, United States",,38.957662,-76.918536,CVS Pharmacy - Photo,ChIJTUZBrtTGt4kRWa-kx2LPiHA,MD
93,"1521 North Quaker Lane, Alexandria, VA 22302, United States",Alexandria,38.829173,-77.085657,CVS Pharmacy - Photo,ChIJYU0S-2mxt4kRfJo2GuvGWxs,VA
94,"5402 Lee Highway, Arlington, VA 22207, United States",Arlington,38.89586,-77.138207,CVS Pharmacy - Photo,ChIJ3fEUAhCmsYkRjwUQrEq5HU8,VA
95,"3535 South Jefferson Street, Bailey's Crossroads, VA 22041, United States",Bailey's Crossroads,38.847292,-77.117494,CVS Pharmacy - Photo,ChIJX9eINPGzt4kR7ES41-Lvuuw,VA
96,"337 Maple Avenue East, Vienna, VA 22180, United States",Vienna,38.904876,-77.258701,CVS Pharmacy - Photo,ChIJ43YaPbRLtokRbMdO4m9LPQw,VA
97,"1636 Belle View Boulevard, Alexandria, VA 22307, United States",Alexandria,38.776598,-77.062005,CVS Pharmacy - Photo,ChIJi8bUf9Kxt4kRfKO8nJhX1Ic,VA
98,"6228 North Kings Highway, Alexandria, VA 22303, United States",Alexandria,38.782443,-77.080444,CVS Pharmacy - Photo,ChIJ0VXN7MGxt4kRFhbesu5fgsg,VA
99,"11416 Suite D Rockville Pike, Rockville, MD 20852, United States",Rockville,39.043155,-77.111592,CVS Pharmacy - Photo,ChIJFZkmPTDMt4kRPd9WRfe2vtU,MD
100,"162 Fleet Street, National Harbor, MD 20745, United States",National Harbor,38.783591,-77.014965,CVS Pharmacy - Photo,ChIJ521laXSwt4kR9WUAmfXvG8A,MD
101,"7955 Tuckerman Lane, Rockville, MD 20854, United States",Rockville,39.041445,-77.157309,CVS Pharmacy - Photo,ChIJM9GEUozMt4kROcf25BXKm0g,MD
102,"6200 Central Avenue, Seat Pleasant, MD 20743, United States",Seat Pleasant,38.888061,-76.901598,CVS Pharmacy,ChIJO8qGUTm_t4kRXc2bYaCRqAE,MD
103,"7050 Allentown Road, Camp Springs, MD 20748, United States",Camp Springs,38.793061,-76.925842,CVS Pharmacy - Photo,ChIJw39eXoK7t4kRfDS5kVhlgdk,MD
104,"2321 University Boulevard West, Wheaton, MD 20902, United States",,39.04178,-77.049701,CVS Pharmacy - Photo,ChIJ-d_CsATPt4kRShjFxdEquP0,MD
105,"7041 Martin Luther King Highway, Palmer Park, MD 20785, United States",Palmer Park,38.914164,-76.883711,CVS Pharmacy,ChIJn3inUZvAt4kRAdia-ioSQcY,MD
106,"134 West Broad Street, Falls Church, VA 22046, United States",Falls Church,38.883297,-77.171824,CVS Pharmacy - Photo,ChIJSeCq1sG0t4kR4t0VOSuGDIw,VA
107,"799 Rockville Pike, Rockville, MD 20852, United States",Rockville,39.076406,-77.140684,CVS Pharmacy - Photo,ChIJIzKGa7XNt4kRSuIstEC-KbE,MD
108,"11729 Beltsville Drive, Beltsville, MD 20705, United States",Beltsville,39.048418,-76.936843,CVS Pharmacy - Photo,ChIJ--0UaZLEt4kREcukUBoGbLM,MD
109,"10113 New Hampshire Avenue, Silver Spring, MD 20903, United States",Silver Spring,39.021107,-76.975247,CVS Pharmacy - Photo,ChIJr85yxcfFt4kRxzvrYQNYlq0,MD
110,"11900 Viers Mill Road, Wheaton, MD 20902, United States",,39.03887,-77.05449,CVS Pharmacy - Photo,ChIJQX5_5wvPt4kRg9SnlxUDCE8,MD
111,"11100 Baltimore Avenue, Beltsville, MD 20705, United States",Beltsville,39.035384,-76.907407,CVS Pharmacy - Photo,ChIJCQo0poLDt4kRNdhj5bzfRxo,MD
112,"8201 Oxon Hill Road, Fort Washington, MD 20744, United States",Fort Washington,38.776973,-77.00667,CVS Pharmacy - Photo,ChIJD7Vwn6G6t4kRjGBJueWcbyA,MD
113,"11906 Livingston Road, Fort Washington, MD 20749, United States",Fort Washington,38.726361,-76.989225,CVS Pharmacy - Photo,ChIJHbKSY22lt4kRg6P63zet0Xo,MD
114,"2210 Viers Mill Road, Rockville, MD 20851, United States",Rockville,39.075505,-77.114805,CVS Pharmacy - Photo,ChIJa4eIRMPNt4kROkt81KALtg4,MD
115,"9920 Key West Avenue, Rockville, MD 20850, United States",Rockville,39.100201,-77.2125,CVS Pharmacy - Photo,ChIJ-SOSrbwytokRHdxkdPwey7I,MD
116,"5910 Greenbelt Road, Greenbelt, MD 20770, United States",Greenbelt,38.998656,-76.913243,CVS Pharmacy - Photo,ChIJm_Huj_7Dt4kRe3BY6G6aBYw,MD
117,"8859 Branch Avenue, Clinton, MD 20735, United States",Clinton,38.767245,-76.890203,CVS Pharmacy - Photo,ChIJ63gS_O68t4kRGpnS20pr3pc,MD
118,"4606 Kenmore Avenue, Alexandria, VA 22304, United States",Alexandria,38.828953,-77.109512,CVS Pharmacy - Photo,ChIJXz_jWtyzt4kR8oZTWe3i-2Y,VA
119,"12209 Viers Mill Road, Wheaton, MD 20906, United States",,39.057428,-77.08249,CVS Pharmacy - Photo,ChIJDWozrGHOt4kRPDkYvgzBEKg,MD
120,"1301 Lamberton Road, Silver Spring, MD 20902, United States",Silver Spring,39.041276,-77.030817,CVS Pharmacy - Photo,ChIJ-88d6XLPt4kRzl59Su2jqL8,MD
121,"8201 Annapolis Road, New Carrollton, MD 20784, United States",New Carrollton,38.955151,-76.872469,CVS Pharmacy - Photo,ChIJrW3aQwfBt4kRlXHaUaxdX1Q,MD
122,"3053 Nutley Street, Fairfax, VA 22030, United States",Fairfax,38.870546,-77.260953,CVS Pharmacy - Photo,ChIJ83FtYDpMtokRv-7aayUKqGI,VA
123,"11670 Plaza America Drive, Reston, VA 20170, United States",Reston,38.952245,-77.349182,CVS Pharmacy - Photo,ChIJWyl5pSRItokRHvfrXzpPdJ0,VA
124,"6164 Arlington Boulevard, Falls Church, VA 22044, United States",Falls Church,38.86985,-77.14645,CVS Pharmacy - Photo,ChIJPym7xGK0t4kRtjpaJ13O4kE,VA
125,"3130 Queens Chapel Road, Hyattsville, MD 20782, United States",Hyattsville,38.951306,-76.967906,CVS Pharmacy,ChIJPbbUYajHt4kR0pJT8FxhdQQ,MD
126,"7275 Arlington Boulevard, Falls Church, VA 22042, United States",Falls Church,38.864534,-77.198009,CVS Pharmacy - Photo,ChIJ-QEHUFRLtokRdA0elhP8fhQ,VA
127,"7205 Little River Turnpike, Annandale, VA 22003, United States",Annandale,38.829556,-77.193872,CVS Pharmacy - Photo,ChIJn35sMC2zt4kRuUSz2_RlZL0,VA
128,"825 Wayne Avenue, Silver Spring, MD 20910, United States",Silver Spring,38.996448,-77.024434,CVS Pharmacy - Photo,ChIJVbn4Rr_It4kR6wvSdce0eXs,MD
129,"546 North Frederick Road, Gaithersburg, MD 20877, United States",Gaithersburg,39.147986,-77.209813,CVS Pharmacy - Photo,ChIJs_w-pScttokR7oT72SqmMiY,MD
130,"10692 Campus Way South, Upper Marlboro, MD 20772, United States",Upper Marlboro,38.898056,-76.823951,CVS Pharmacy - Photo,ChIJ09PRM1SVt4kR4yggipkedfQ,MD
131,"6404 Williamsburg Boulevard, Arlington, VA 22207, United States",Arlington,38.900166,-77.156088,CVS Pharmacy - Photo,ChIJcVa3awK1t4kRtx0uAIA8_cE,VA
132,"12359 Georgia Avenue, Silver Spring, MD 20906, United States",Silver Spring,39.060977,-77.049827,CVS Pharmacy - Photo,ChIJkTv6d67Pt4kR0FSzHe8yuyU,MD
133,"10390 Willard Way, Fairfax, VA 22030, United States",Fairfax,38.848768,-77.303315,CVS Pharmacy - Photo,ChIJeZfzrJZOtokRNLFk1neUg80,VA
134,"6001 Highbridge Road, Bowie, MD 20720, United States",Bowie,38.972865,-76.77258,CVS Pharmacy - Photo,ChIJgz04TNHrt4kRs-fSO4na7cA,MD
135,"6436 Springfield Plaza, Springfield, VA 22150, United States",Springfield,38.77931,-77.19003,CVS Pharmacy - Photo,ChIJawQL-FWtt4kR_w77F06oQmI,VA
136,"15100 Baltimore Avenue, Laurel, MD 20707, United States",Laurel,39.09757,-76.84926,CVS Pharmacy - Photo,ChIJOQpvLBPdt4kRdux-bi249Ns,MD
137,"5870 Silver Hill Road, District Heights, MD 20747, United States",District Heights,38.857286,-76.906038,CVS Pharmacy - Photo,ChIJq6qqqu6-t4kRpdbG5OmtQTc,MD
138,"1462 Beauregard Street, Alexandria, VA 22311, United States",Alexandria,38.830701,-77.125777,CVS Pharmacy - Photo,ChIJ13WYY7-zt4kRhMRSPb4dmq8,VA
139,"28 Watkins Drive, Upper Marlboro, MD 20774, United States",Upper Marlboro,38.900033,-76.789594,CVS Pharmacy - Photo,ChIJg2U_UM3qt4kRyAl_wXEE6Ek,MD
140,"8928 Burke Lake Road, Springfield, VA 22151, United States",Springfield,38.809899,-77.253222,CVS Pharmacy - Photo,ChIJARklJL1NtokR1-nF_hSSpx8,VA
141,"1201 S Hayes Street, Arlington, VA 22202, United States",Arlington,38.861494,-77.058911,CVS Pharmacy,ChIJLULsKd-2t4kR8pziA8ZMnGI,VA
142,"9009 Silverbrook Road, Fairfax Station, VA 22039, United States",Fairfax Station,38.727704,-77.256919,CVS Pharmacy - Photo,ChIJDVNoMrxTtokRCgrUcVWYKxI,VA
143,"259 South Van Dorn Street, Alexandria, VA 22315, United States",Alexandria,38.811507,-77.133622,CVS Pharmacy - Photo,ChIJ6dzqbkyyt4kRL9YQ1JlGQOk,VA
144,"5560 Norbeck Road, Rockville, MD 20853, United States",Rockville,39.09503,-77.11135,CVS Pharmacy - Photo,ChIJ6fFJ7fnNt4kRfJYXkZVgGUg,MD
145,"11160 South Lakes Drive, Reston, VA 20191, United States",Reston,38.938407,-77.330479,CVS Pharmacy - Photo,ChIJ24H4hLVJtokR626a_jGCwKA,VA
146,"7012 Marlboro Pike, Forestville, MD 20747, United States",Forestville,38.850308,-76.884583,CVS Pharmacy - Photo,ChIJ1S2gZO2-t4kRBVjybCo67Rk,MD
147,"6150 Franconia Road, Alexandria, VA 22310, United States",Alexandria,38.781756,-77.15049,CVS Pharmacy - Photo,ChIJwb1LF4eyt4kRHqcJ28B6g94,VA
148,"6920 Laurel Bowie Road, Bowie, MD 20715, United States",Bowie,38.985097,-76.758893,CVS Pharmacy - Photo,ChIJHRNeeGfpt4kRZIvtI1VtlMo,MD
149,"3110 Olney Sandy Spring Road, Olney, MD 20832, United States",Olney,39.150668,-77.063572,CVS Pharmacy - Photo,ChIJ53PerhfRt4kRh5egIeVjVRQ,MD
150,"5621 Sargent Road, Hyattsville, MD 20782, United States",Hyattsville,38.958722,-76.986414,CVS Pharmacy - Photo,ChIJz0cGvrXHt4kRVxGRQfjbcFY,MD
151,"2912 Chain Bridge Road, Oakton, VA 22124, United States",Oakton,38.882755,-77.29898,CVS Pharmacy - Photo,ChIJR0opwk9JtokRTWGNJA7wDGU,VA
152,"13320 Laurel Bowie Road, Laurel, MD 20708, United States",Laurel,39.073971,-76.849812,CVS Pharmacy,ChIJ53tE5DXdt4kR4rDygxEiztA,MD
153,"320 40th Street Northeast, Washington, DC 20019, United States",D.C.,38.893442,-76.947696,CVS Pharmacy - Photo,ChIJBcXCfOy4t4kRsBeKfkLe3l0,DC
154,"5100 Brown Station Road, Upper Marlboro, MD 20772, United States",Upper Marlboro,38.8198,-76.76376,CVS Pharmacy - Photo,ChIJEcnpSSSUt4kR2r4n3fr6YAo,MD
155,"8640 Guilford Road, Columbia, MD 21046, United States",Columbia,39.169252,-76.864971,CVS Pharmacy - Photo,ChIJH1bG6mbet4kRUVggwUHcrsI,MD
156,"12215 Darnestown Road, Gaithersburg, MD 20878, United States",Gaithersburg,39.118798,-77.253816,CVS Pharmacy - Photo,ChIJWZqOi4gttokRDfIZ63uHGh4,MD
157,"13600 Jefferson Davis Highway, Woodbridge, VA 22191, United States",Woodbridge,38.658246,-77.250465,CVS Pharmacy - Photo,ChIJwd4pya1VtokRoReELzOXoy0,VA
158,"5922 Martin Luther King Jr Highway, Seat Pleasant, MD 20743, United States",Seat Pleasant,38.897968,-76.905765,CVS Pharmacy - Photo,ChIJ04Q87UW_t4kROCqupoHYiIU,MD
159,"7408 Annapolis Road, Landover Hills, MD 20784, United States",Landover Hills,38.947835,-76.887329,CVS Pharmacy - Photo,ChIJ7TVAyuPAt4kRztz3rjLQdM8,MD
160,"9420 Lanham Severn Road, Seabrook, MD 20706, United States",Seabrook,38.973335,-76.8468,CVS Pharmacy - Photo,ChIJm26Gg-zBt4kRHr9iqQpLwqo,MD
161,"4601 Sangamore Road, Bethesda, MD 20816, United States",Bethesda,38.949264,-77.118827,CVS Pharmacy - Photo,ChIJWb9UdxHKt4kRnr_jA9iAMCg,MD
162,"8330 Old Keene Mill Road, Springfield, VA 22152, United States",Springfield,38.780622,-77.233203,CVS Pharmacy - Photo,ChIJPVFVwoZStokRbWQDfgcqDqg,VA
163,"645 H Street Ne, Washington, DC 20002, United States",D.C.,38.900211,-76.997044,CVS Pharmacy - Photo,ChIJqyniDj24t4kRV7q_VLwVgOI,DC
164,"2003 Davidsonville Road, Crofton, MD 21114, United States",Crofton,39.018646,-76.693766,CVS Pharmacy - Photo,ChIJGx8PrwXvt4kRsCzVmwTNRvI,MD
165,"13729 Connecticut Avenue, Wheaton, MD 20906, United States",,39.078948,-77.079052,CVS Pharmacy - Photo,ChIJr5lX6xXOt4kRhU1l5b3BhZQ,MD
166,"2600 Annapolis Road, Severn, MD 21144, United States",Severn,39.12869,-76.734739,CVS Pharmacy - Photo,ChIJ78N12Kfmt4kRaXYsjD4E2IU,MD
167,"6637 Arlington Boulevard, Falls Church, VA 22042, United States",Falls Church,38.869288,-77.172908,CVS Pharmacy - Photo,ChIJgXLqtqK0t4kR_-AatbVjcmE,VA
168,"15600 Columbia Pike, Burtonsville, MD 20866, United States",Burtonsville,39.111632,-76.934823,CVS Pharmacy - Photo,ChIJX5UY3G_bt4kRx6ajU_eRzSI,MD
169,"6400 Landsdown Centre, Alexandria, VA 22060, United States",Alexandria,38.741278,-77.16539,CVS Pharmacy - Photo,ChIJreIOCxytt4kRx4Q70gQo4_M,VA
170,"7678 Richmond Highway, Alexandria, VA 22306, United States",Alexandria,38.750939,-77.086998,CVS Pharmacy - Photo,ChIJ3fEUAhCmsYkR1i14VlUePNc,VA
171,"320 Domer Street, Laurel, MD 20707, United States",Laurel,39.095126,-76.854992,CVS Pharmacy - Photo,ChIJi0IzGhTdt4kRdHCMQ5M4TEg,MD
172,"10090 Fairfax Boulevard, Fairfax, VA 22030, United States",Fairfax,38.862803,-77.293027,CVS Pharmacy - Photo,ChIJoS6R_qVOtokRyLjwI7iekqo,VA
173,"264 Cedar Lane, Vienna, VA 22180, United States",Vienna,38.88801,-77.243896,CVS Pharmacy - Photo,ChIJsTPvpp9LtokRnrvbU6XjAkc,VA
174,"18080 Mateny Road, Germantown, MD 20874, United States",Germantown,39.147368,-77.272507,CVS Pharmacy - Photo,ChIJhUGcFcUttokRsck8ylM1aQw,MD
175,"9582 Old Keene Mill Road, Burke, VA 22015, United States",Burke,38.778684,-77.274623,CVS Pharmacy - Photo,ChIJEwnznRpStokRsnndy54Cr4M,VA
176,"2271 Bel Pre Road, Silver Spring, MD 20906, United States",Silver Spring,39.091364,-77.048213,CVS Pharmacy - Photo,ChIJJS6cJCfOt4kRktrgSik4Ik4,MD
177,"1100 New Jersey Avenue Southeast, Washington, DC 20003, United States",D.C.,38.87717,-77.00386,CVS Pharmacy - Photo,ChIJ1ahp5NO5t4kRcKzqMh1bG4E,DC
178,"2350 Washington Place NE, Washington, DC 20019, United States",Washington,38.921588,-76.99421,CVS Pharmacy - Photo,ChIJQTFARwi4t4kRWFwOtm13eG4,DC
179,"8628 Richmond Highway, Alexandria, VA 22309, United States",Alexandria,38.724085,-77.120417,CVS Pharmacy - Photo,ChIJJ5kfFDest4kR505JKGCIHPs,VA
180,"The Pentagon Main Concourse, Arlington, VA 22202, United States",Arlington,38.870876,-77.054356,CVS Pharmacy - Photo,ChIJVdUY0QK3t4kRufotxtr0Pf4,VA
181,"5711 Burke Center Parkway, Burke, VA 22015, United States",Burke,38.799822,-77.322238,CVS Pharmacy - Photo,ChIJseWeqShOtokRuCOW-FHPsxM,VA
182,"1334 Crain Highway South, Bowie, MD 20715, United States",Bowie,38.908618,-76.719824,CVS Pharmacy - Photo,ChIJqc4v_bzst4kRABm5E28KmY8,MD
183,"4338 Dale Boulevard, Woodbridge, VA 22193, United States",Woodbridge,38.647758,-77.338816,CVS Pharmacy - Photo,ChIJCySZQslXtokRS_IsRge8QaE,VA
184,"7600 Se Crain Highway, Upper Marlboro, MD 20772, United States",Upper Marlboro,38.784552,-76.792642,CVS Pharmacy - Photo,ChIJ2RtjrFqWt4kRK8A-mHOotgU,MD
185,"8117 Leesburg Pike, Vienna, VA 22182, United States",Vienna,38.914793,-77.226397,CVS Pharmacy - Photo,ChIJQUWhAeVKtokRV8_D8Y5hbyw,VA
186,"11003 Lee Highway, Fairfax, VA 22030, United States",Fairfax,38.852029,-77.324966,CVS Pharmacy - Photo,ChIJ778_wOZOtokRLbe-wInmzqw,VA
187,"7230 Muncaster Mill Road, Derwood, MD 20855, United States",Derwood,39.145243,-77.145634,CVS Pharmacy - Photo,ChIJxcckBavTt4kRKsmyOeACD3I,MD
188,"12890 Touchstone Circle, Woodbridge, VA 22192, United States",Woodbridge,38.675156,-77.331753,CVS Pharmacy - Photo,ChIJy-EkI_5WtokR65bAiEQMhGM,VA
189,"9871 Georgetown Pike, Great Falls, VA 22066, United States",Great Falls,38.996089,-77.28726,CVS Pharmacy - Photo,ChIJx8MVSIA2tokRtLjcH2gvqIQ,VA
190,"7859 Heritage Drive, Annandale, VA 22003, United States",Annandale,38.825476,-77.214483,CVS Pharmacy - Photo,ChIJF7gkIN9MtokRZcu89wfUzhw,VA
191,"2200 Tacketts Mill Road, Woodbridge, VA 22192, United States",Woodbridge,38.676178,-77.277931,CVS Pharmacy - Photo,ChIJpX8Chy9UtokRm5KTDrCMG54,VA
192,"1201 Maryland Avenue Southwest, Washington, DC 20024, United States",D.C.,38.884685,-77.029398,CVS Photo,ChIJK0FDj3W3t4kRfh6tk-0zZAQ,DC
193,"8197 Westside Boulevard, Fulton, MD 20759, United States",Fulton,39.148277,-76.908098,CVS Pharmacy - Photo,ChIJW3ZwegXct4kR4xUo3XAVkg4,MD
194,"11937 Fair Oaks Mall, Fairfax, VA 22033, United States",Fairfax,38.8629,-77.36054,CVS Pharmacy,ChIJzezzeUFPtokRWFbhwv9MFac,VA
195,"3921 Prosperity Avenue, Fairfax, VA 22031, United States",Fairfax,38.83839,-77.24496,CVS Pharmacy - Photo,ChIJgTvvtTtMtokRiK-ixn3gduE,VA
196,"3700 Newark St. Nw, Washington, DC 20016, United States",D.C.,38.934627,-77.072606,CVS Pharmacy - Photo,ChIJk7gpP9nJt4kRQ8S8W1BWG4M,DC
197,"8601 Martin Luther King Jr. Hwy, Glenarden, MD 20706, United States",Glenarden,38.937199,-76.858496,CVS Pharmacy - Photo,ChIJjbJgY0XAt4kRgXwJ2OKd8mE,MD
198,"12027 Town Square Street, Reston, VA 20190, United States",Reston,38.958032,-77.361396,CVS Pharmacy - Photo,ChIJmeq3AxxItokRJJvd-Nf3k1s,VA
